{"type": "FeatureCollection", "features": [ {"type": "Feature", "properties": {"norad_id": 35650, "name": "COSMOS 2251 DEB", "group": "cosmos-2251-debris", "lat": 25.95209007627918, "lon": 28.758366826649233, "alt_km": 609.2951542914243, "timestamp": "2025-12-11T18:59:46.471900+00:00", "meta": {"OBJECT_NAME": "COSMOS 2251 DEB", "OBJECT_ID": "1993-036ANR", "EPOCH": "2025-12-10T04:17:14.504640", "MEAN_MOTION": 14.83512413, "ECCENTRICITY": 0.00145256, "INCLINATION": 74.0455, "RA_OF_ASC_NODE": 23.9462, "ARG_OF_PERICENTER": 72.7174, "MEAN_ANOMALY": 344.2504, "EPHEMERIS_TYPE": 0, "CLASSIFICATION_TYPE": "U", "NORAD_CAT_ID": 35650, "ELEMENT_SET_NO": 999, "REV_AT_EPOCH": 87596, "BSTAR": 0.0022559243, "MEAN_MOTION_DOT": 0.00018615, "MEAN_MOTION_DDOT": 0}, "tle": {"line1": "1 35650U 93036ANR 25344.17864010  .00018615  00000+0  22559-2 0  9990", "line2": "2 35650  74.0455  23.9462 0014525  72.7174 344.2504 14.83512413875966"}}, "geometry": {"type": "Point", "coordinates": [28.758366826649233, 25.95209007627918]}}, {"type": "Feature", "properties": {"norad_id": 35660, "name": "COSMOS 2251 DEB", "group": "cosmos-2251-debris", "lat": 70.83923895526094, "lon": -169.5392784561455, "alt_km": 730.7493485983623, "timestamp": "2025-12-11T18:59:46.471910+00:00", "meta": {"OBJECT_NAME": "COSMOS 2251 DEB", "OBJECT_ID": "1993-036APB", "EPOCH": "2025-12-10T03:25:35.080032", "MEAN_MOTION": 14.49912866, "ECCENTRICITY": 0.00186346, "INCLINATION": 74.0397, "RA_OF_ASC_NODE": 138.1054, "ARG_OF_PERICENTER": 287.2761, "MEAN_ANOMALY": 189.4863, "EPHEMERIS_TYPE": 0, "CLASSIFICATION_TYPE": "U", "NORAD_CAT_ID": 35660, "ELEMENT_SET_NO": 999, "REV_AT_EPOCH": 65833, "BSTAR": 0.00068790313, "MEAN_MOTION_DOT": 2.638e-05, "MEAN_MOTION_DDOT": 0}, "tle": {"line1": "1 35660U 93036APB 25344.14276713  .00002638  00000+0  68790-3 0  9991", "line2": "2 35660  74.0397 138.1054 0018634 287.2761 189.4863 14.49912866658333"}}, "geometry": {"type": "Point", "coordinates": [-169.5392784561455, 70.83923895526094]}}, {"type": "Feature", "properties": {"norad_id": 35661, "name": "COSMOS 2251 DEB", "group": "cosmos-2251-debris", "lat": -45.58839635779001, "lon": 64.60602763921254, "alt_km": 651.071546741885, "timestamp": "2025-12-11T18:59:46.471920+00:00", "meta": {"OBJECT_NAME": "COSMOS 2251 DEB", "OBJECT_ID": "1993-036APC", "EPOCH": "2025-12-09T17:08:36.134304", "MEAN_MOTION": 14.86479367, "ECCENTRICITY": 0.00883269, "INCLINATION": 74.0134, "RA_OF_ASC_NODE": 85.7599, "ARG_OF_PERICENTER": 190.7537, "MEAN_ANOMALY": 169.1759, "EPHEMERIS_TYPE": 0, "CLASSIFICATION_TYPE": "U", "NORAD_CAT_ID": 35661, "ELEMENT_SET_NO": 999, "REV_AT_EPOCH": 87823, "BSTAR": 0.0014984263, "MEAN_MOTION_DOT": 0.00014219, "MEAN_MOTION_DDOT": 0}, "tle": {"line1": "1 35661U 93036APC 25343.71430711  .00014219  00000+0  14984-2 0  9997", "line2": "2 35661  74.0134  85.7599 0088326 190.7537 169.1759 14.86479367878235"}}, "geometry": {"type": "Point", "coordinates": [64.60602763921254, -45.58839635779001]}}, {"type": "Feature", "properties": {"norad_id": 35663, "name": "COSMOS 2251 DEB", "group": "cosmos-2251-debris", "lat": -73.57158229940889, "lon": 22.92210793258626, "alt_km": 680.6596812695443, "timestamp": "2025-12-11T18:59:46.471931+00:00", "meta": {"OBJECT_NAME": "COSMOS 2251 DEB", "OBJECT_ID": "1993-036APE", "EPOCH": "2025-11-30T11:26:45.384288", "MEAN_MOTION": 14.65332391, "ECCENTRICITY": 0.00074535, "INCLINATION": 74.0171, "RA_OF_ASC_NODE": 148.2949, "ARG_OF_PERICENTER": 219.2944, "MEAN_ANOMALY": 140.7685, "EPHEMERIS_TYPE": 0, "CLASSIFICATION_TYPE": "U", "NORAD_CAT_ID": 35663, "ELEMENT_SET_NO": 999, "REV_AT_EPOCH": 73202, "BSTAR": 0.0015821861, "MEAN_MOTION_DOT": 8.525e-05, "MEAN_MOTION_DDOT": 0}, "tle": {"line1": "1 35663U 93036APE 25334.47691417  .00008525  00000+0  15822-2 0  9999", "line2": "2 35663  74.0171 148.2949 0007453 219.2944 140.7685 14.65332391732024"}}, "geometry": {"type": "Point", "coordinates": [22.92210793258626, -73.57158229940889]}}, {"type": "Feature", "properties": {"norad_id": 35667, "name": "COSMOS 2251 DEB", "group": "cosmos-2251-debris", "lat": -23.18907740674898, "lon": 134.87975298838037, "alt_km": 707.9059247129644, "timestamp": "2025-12-11T18:59:46.471941+00:00", "meta": {"OBJECT_NAME": "COSMOS 2251 DEB", "OBJECT_ID": "1993-036APJ", "EPOCH": "2025-12-11T04:18:22.945536", "MEAN_MOTION": 14.59989469, "ECCENTRICITY": 0.00198295, "INCLINATION": 74.0549, "RA_OF_ASC_NODE": 143.0806, "ARG_OF_PERICENTER": 203.8334, "MEAN_ANOMALY": 156.1916, "EPHEMERIS_TYPE": 0, "CLASSIFICATION_TYPE": "U", "NORAD_CAT_ID": 35667, "ELEMENT_SET_NO": 999, "REV_AT_EPOCH": 70780, "BSTAR": 0.0016781081, "MEAN_MOTION_DOT": 8.053e-05, "MEAN_MOTION_DDOT": 0}, "tle": {"line1": "1 35667U 93036APJ 25345.17943224  .00008053  00000+0  16781-2 0  9999", "line2": "2 35667  74.0549 143.0806 0019829 203.8334 156.1916 14.59989469707807"}}, "geometry": {"type": "Point", "coordinates": [134.87975298838037, -23.18907740674898]}}, {"type": "Feature", "properties": {"norad_id": 35668, "name": "COSMOS 2251 DEB", "group": "cosmos-2251-debris", "lat": 69.60864569064995, "lon": -87.33777484093076, "alt_km": 692.4311622027681, "timestamp": "2025-12-11T18:59:46.471951+00:00", "meta": {"OBJECT_NAME": "COSMOS 2251 DEB", "OBJECT_ID": "1993-036APK", "EPOCH": "2025-12-10T09:50:46.743936", "MEAN_MOTION": 14.63977041, "ECCENTRICITY": 0.00831886, "INCLINATION": 74.0449, "RA_OF_ASC_NODE": 224.9926, "ARG_OF_PERICENTER": 330.6481, "MEAN_ANOMALY": 29.0026, "EPHEMERIS_TYPE": 0, "CLASSIFICATION_TYPE": "U", "NORAD_CAT_ID": 35668, "ELEMENT_SET_NO": 999, "REV_AT_EPOCH": 87613, "BSTAR": 0.00039699898, "MEAN_MOTION_DOT": 2.154e-05, "MEAN_MOTION_DDOT": 0}, "tle": {"line1": "1 35668U 93036APK 25344.41026324  .00002154  00000+0  39700-3 0  9992", "line2": "2 35668  74.0449 224.9926 0083188 330.6481  29.0026 14.63977041876131"}}, "geometry": {"type": "Point", "coordinates": [-87.33777484093076, 69.60864569064995]}}, {"type": "Feature", "properties": {"norad_id": 35669, "name": "COSMOS 2251 DEB", "group": "cosmos-2251-debris", "lat": 57.47682928022723, "lon": -172.05407229174025, "alt_km": 1282.7031370334453, "timestamp": "2025-12-11T18:59:46.471962+00:00", "meta": {"OBJECT_NAME": "COSMOS 2251 DEB", "OBJECT_ID": "1993-036APL", "EPOCH": "2025-12-10T17:55:05.054592", "MEAN_MOTION": 13.57151778, "ECCENTRICITY": 0.03880721, "INCLINATION": 73.8635, "RA_OF_ASC_NODE": 162.6479, "ARG_OF_PERICENTER": 274.7966, "MEAN_ANOMALY": 80.8943, "EPHEMERIS_TYPE": 0, "CLASSIFICATION_TYPE": "U", "NORAD_CAT_ID": 35669, "ELEMENT_SET_NO": 999, "REV_AT_EPOCH": 60762, "BSTAR": 0.0012765304, "MEAN_MOTION_DOT": 1.459e-05, "MEAN_MOTION_DDOT": 0}, "tle": {"line1": "1 35669U 93036APL 25344.74658628  .00001459  00000+0  12765-2 0  9995", "line2": "2 35669  73.8635 162.6479 0388072 274.7966  80.8943 13.57151778607625"}}, "geometry": {"type": "Point", "coordinates": [-172.05407229174025, 57.47682928022723]}}, {"type": "Feature", "properties": {"norad_id": 35670, "name": "COSMOS 2251 DEB", "group": "cosmos-2251-debris", "lat": -71.74557897979773, "lon": -52.42624941240594, "alt_km": 608.1801548928752, "timestamp": "2025-12-11T18:59:46.471972+00:00", "meta": {"OBJECT_NAME": "COSMOS 2251 DEB", "OBJECT_ID": "1993-036APM", "EPOCH": "2025-12-08T12:40:44.894496", "MEAN_MOTION": 14.93746131, "ECCENTRICITY": 0.00374415, "INCLINATION": 73.8955, "RA_OF_ASC_NODE": 73.039, "ARG_OF_PERICENTER": 35.0218, "MEAN_ANOMALY": 325.3416, "EPHEMERIS_TYPE": 0, "CLASSIFICATION_TYPE": "U", "NORAD_CAT_ID": 35670, "ELEMENT_SET_NO": 999, "REV_AT_EPOCH": 87664, "BSTAR": 0.0018203888, "MEAN_MOTION_DOT": 0.00019569, "MEAN_MOTION_DDOT": 0}, "tle": {"line1": "1 35670U 93036APM 25342.52829739  .00019569  00000+0  18204-2 0  9999", "line2": "2 35670  73.8955  73.0390 0037441  35.0218 325.3416 14.93746131876644"}}, "geometry": {"type": "Point", "coordinates": [-52.42624941240594, -71.74557897979773]}}, {"type": "Feature", "properties": {"norad_id": 35671, "name": "COSMOS 2251 DEB", "group": "cosmos-2251-debris", "lat": 42.33332853840897, "lon": -114.04041034670063, "alt_km": 741.7510904730989, "timestamp": "2025-12-11T18:59:46.471982+00:00", "meta": {"OBJECT_NAME": "COSMOS 2251 DEB", "OBJECT_ID": "1993-036APN", "EPOCH": "2025-12-09T13:24:21.306816", "MEAN_MOTION": 14.48340433, "ECCENTRICITY": 0.004149, "INCLINATION": 74.0178, "RA_OF_ASC_NODE": 85.2791, "ARG_OF_PERICENTER": 259.861, "MEAN_ANOMALY": 118.1508, "EPHEMERIS_TYPE": 0, "CLASSIFICATION_TYPE": "U", "NORAD_CAT_ID": 35671, "ELEMENT_SET_NO": 999, "REV_AT_EPOCH": 86717, "BSTAR": 0.00041701, "MEAN_MOTION_DOT": 1.548e-05, "MEAN_MOTION_DDOT": 0}, "tle": {"line1": "1 35671U 93036APN 25343.55857994  .00001548  00000+0  41701-3 0  9995", "line2": "2 35671  74.0178  85.2791 0041490 259.8610 118.1508 14.48340433867179"}}, "geometry": {"type": "Point", "coordinates": [-114.04041034670063, 42.33332853840897]}}, {"type": "Feature", "properties": {"norad_id": 35674, "name": "COSMOS 2251 DEB", "group": "cosmos-2251-debris", "lat": -8.309705475155374, "lon": -44.09102709166835, "alt_km": 648.9946739585475, "timestamp": "2025-12-11T18:59:46.471993+00:00", "meta": {"OBJECT_NAME": "COSMOS 2251 DEB", "OBJECT_ID": "1993-036APR", "EPOCH": "2025-12-10T14:57:59.522112", "MEAN_MOTION": 14.54148756, "ECCENTRICITY": 0.0096045, "INCLINATION": 74.0605, "RA_OF_ASC_NODE": 320.5053, "ARG_OF_PERICENTER": 5.7735, "MEAN_ANOMALY": 354.451, "EPHEMERIS_TYPE": 0, "CLASSIFICATION_TYPE": "U", "NORAD_CAT_ID": 35674, "ELEMENT_SET_NO": 999, "REV_AT_EPOCH": 86080, "BSTAR": 0.0032344, "MEAN_MOTION_DOT": 0.00014545, "MEAN_MOTION_DDOT": 0}, "tle": {"line1": "1 35674U 93036APR 25344.62360558  .00014545  00000+0  32344-2 0  9995", "line2": "2 35674  74.0605 320.5053 0096045   5.7735 354.4510 14.54148756860807"}}, "geometry": {"type": "Point", "coordinates": [-44.09102709166835, -8.309705475155374]}}]}